$$SOE
2460721.500000000, A.D. 2025-Feb-15 00:00:00.0000, 2.888950186262743E+08, 1.972938451285225E+08, 1.307052344158803E+07,
2460728.500000000, A.D. 2025-Feb-22 00:00:00.0000, 2.813352872742401E+08, 2.064748507868576E+08, 1.248075362291083E+07,
2460735.500000000, A.D. 2025-Mar-01 00:00:00.0000, 2.734548128434361E+08, 2.154205078180298E+08, 1.187675275670695E+07,
2460742.500000000, A.D. 2025-Mar-08 00:00:00.0000, 2.652602174897764E+08, 2.241187603864306E+08, 1.125910648389836E+07,
2460749.500000000, A.D. 2025-Mar-15 00:00:00.0000, 2.567586216300463E+08, 2.325576840714575E+08, 1.062842658311130E+07,
2460756.500000000, A.D. 2025-Mar-22 00:00:00.0000, 2.479576449096972E+08, 2.407255091794025E+08, 9.985351002208531E+06,
2460763.500000000, A.D. 2025-Mar-29 00:00:00.0000, 2.388654074246657E+08, 2.486106425696702E+08, 9.330543504779309E+06,
2460770.500000000, A.D. 2025-Apr-05 00:00:00.0000, 2.294905314384308E+08, 2.562016910783268E+08, 8.664693153073385E+06,
2460777.500000000, A.D. 2025-Apr-12 00:00:00.0000, 2.198421415797986E+08, 2.634874865810175E+08, 7.988513808162868E+06,
2460784.500000000, A.D. 2025-Apr-19 00:00:00.0000, 2.099298632500210E+08, 2.704571117459644E+08, 7.302743588796526E+06,
2460791.500000000, A.D. 2025-Apr-26 00:00:00.0000, 1.997638194307608E+08, 2.770999261969671E+08, 6.608144244022608E+06,
2460798.500000000, A.D. 2025-May-03 00:00:00.0000, 1.893546259301758E+08, 2.834055930190022E+08, 5.905500427646250E+06,
2460805.500000000, A.D. 2025-May-10 00:00:00.0000, 1.787133850238321E+08, 2.893641055191532E+08, 5.195618869987622E+06,
2460812.500000000, A.D. 2025-May-17 00:00:00.0000, 1.678516774608529E+08, 2.949658140968633E+08, 4.479327438153252E+06,
2460819.500000000, A.D. 2025-May-24 00:00:00.0000, 1.567815529495380E+08, 3.002014530558658E+08, 3.757474062999398E+06,
2460826.500000000, A.D. 2025-May-31 00:00:00.0000, 1.455155194893993E+08, 3.050621675489975E+08, 3.030925519070566E+06,
2460833.500000000, A.D. 2025-Jun-07 00:00:00.0000, 1.340665311100387E+08, 3.095395417319505E+08, 2.300566192062959E+06,
2460840.500000000, A.D. 2025-Jun-14 00:00:00.0000, 1.224479716197107E+08, 3.136256273135611E+08, 1.567296996238112E+06,
2460847.500000000, A.D. 2025-Jun-21 00:00:00.0000, 1.106736355503551E+08, 3.173129690863355E+08, 8.320340652970076E+05,
2460854.500000000, A.D. 2025-Jun-28 00:00:00.0000, 9.875770942121230E+07, 3.205946290640619E+08, 9.570707625956833E+04,
2460861.500000000, A.D. 2025-Jul-05 00:00:00.0000, 8.671475181356934E+07, 3.234642112287960E+08, -6.407424762382060E+05,
2460868.500000000, A.D. 2025-Jul-12 00:00:00.0000, 7.455967108169222E+07, 3.259158859215887E+08, -1.376363008030012E+06,
2460875.500000000, A.D. 2025-Jul-19 00:00:00.0000, 6.230770091997507E+07, 3.279444131436761E+08, -2.110194635404587E+06,
2460882.500000000, A.D. 2025-Jul-26 00:00:00.0000, 4.997437404275181E+07, 3.295451645542478E+08, -2.841271045233369E+06,
2460889.500000000, A.D. 2025-Aug-02 00:00:00.0000, 3.757549410417990E+07, 3.307141440306622E+08, -3.568621442999825E+06,
2460896.500000000, A.D. 2025-Aug-09 00:00:00.0000, 2.512710595906141E+07, 3.314480066241065E+08, -4.291272574753836E+06,
2460903.500000000, A.D. 2025-Aug-16 00:00:00.0000, 1.264546443448942E+07, 3.317440757005262E+08, -5.008250827107161E+06,
2460910.500000000, A.D. 2025-Aug-23 00:00:00.0000, 1.470020134265986E+05, 3.316003581438761E+08, -5.718584421978891E+06,
2460917.500000000, A.D. 2025-Aug-30 00:00:00.0000, -1.235170411638326E+07, 3.310155582067466E+08, -6.421305668790430E+06,
2460924.500000000, A.D. 2025-Sep-06 00:00:00.0000, -2.483396692202409E+07, 3.299890908903247E+08, -7.115453053375572E+06,
2460931.500000000, A.D. 2025-Sep-13 00:00:00.0000, -3.728302780090068E+07, 3.285210922485007E+08, -7.800073202879429E+06,
2460938.500000000, A.D. 2025-Sep-20 00:00:00.0000, -4.968209483694144E+07, 3.266124248517174E+08, -8.474223147445649E+06,
2460945.500000000, A.D. 2025-Sep-27 00:00:00.0000, -6.201437981361605E+07, 3.242646814358155E+08, -9.136972708359689E+06,
2460952.500000000, A.D. 2025-Oct-04 00:00:00.0000, -7.426313582075132E+07, 3.214801872090411E+08, -9.787406771115735E+06,
2460959.500000000, A.D. 2025-Oct-11 00:00:00.0000, -8.641169564231262E+07, 3.182619998271214E+08, -1.042462747370008E+07,
2460966.500000000, A.D. 2025-Oct-18 00:00:00.0000, -9.844351044495776E+07, 3.146139067380559E+08, -1.104775634729615E+07,
2460973.500000000, A.D. 2025-Oct-25 00:00:00.0000, -1.103421884221749E+08, 3.105404198996491E+08, -1.165593641072686E+07,
2460980.500000000, A.D. 2025-Nov-01 00:00:00.0000, -1.220915331461786E+08, 3.060467678905622E+08, -1.224833421025123E+07,
2460987.500000000, A.D. 2025-Nov-08 00:00:00.0000, -1.336755813867033E+08, 3.011388854043928E+08, -1.282414179953922E+07,
2460994.500000000, A.D. 2025-Nov-15 00:00:00.0000, -1.450786400468817E+08, 2.958234001073023E+08, -1.338257866742249E+07,
2461001.500000000, A.D. 2025-Nov-22 00:00:00.0000, -1.562853216176151E+08, 2.901076171373562E+08, -1.392289362209196E+07,
2461008.500000000, A.D. 2025-Nov-29 00:00:00.0000, -1.672805781167009E+08, 2.839995024587253E+08, -1.444436651562700E+07,
2461015.500000000, A.D. 2025-Dec-06 00:00:00.0000, -1.780497356125712E+08, 2.775076650358248E+08, -1.494630960360451E+07,
2461022.500000000, A.D. 2025-Dec-13 00:00:00.0000, -1.885785287232759E+08, 2.706413345718211E+08, -1.542806884766491E+07,
2461029.500000000, A.D. 2025-Dec-20 00:00:00.0000, -1.988531314357569E+08, 2.634103359519208E+08, -1.588902538900049E+07,
2461036.500000000, A.D. 2025-Dec-27 00:00:00.0000, -2.088601851840706E+08, 2.558250631246736E+08, -1.632859687719436E+07,
2461043.500000000, A.D. 2026-Jan-03 00:00:00.0000, -2.185868255191862E+08, 2.478964519680278E+08, -1.674623856788991E+07,
2461050.500000000, A.D. 2026-Jan-10 00:00:00.0000, -2.280207071451172E+08, 2.396359516272248E+08, -1.714144425138223E+07,
2461057.500000000, A.D. 2026-Jan-17 00:00:00.0000, -2.371500269920450E+08, 2.310554944058262E+08, -1.751374703829722E+07,
2461064.500000000, A.D. 2026-Jan-24 00:00:00.0000, -2.459635451695743E+08, 2.221674644134429E+08, -1.786272000630493E+07,
2461071.500000000, A.D. 2026-Jan-31 00:00:00.0000, -2.544506037141928E+08, 2.129846651488677E+08, -1.818797671029767E+07,
2461078.500000000, A.D. 2026-Feb-07 00:00:00.0000, -2.626011430228324E+08, 2.035202861492565E+08, -1.848917156674051E+07,
2461085.500000000, A.D. 2026-Feb-14 00:00:00.0000, -2.704057156888915E+08, 1.937878688765434E+08, -1.876600013755216E+07,
2461092.500000000, A.D. 2026-Feb-21 00:00:00.0000, -2.778554973399293E+08, 1.838012726002073E+08, -1.901819930335540E+07,
2461099.500000000, A.D. 2026-Feb-28 00:00:00.0000, -2.849422955695540E+08, 1.735746416067159E+08, -1.924554713503773E+07,
2461106.500000000, A.D. 2026-Mar-07 00:00:00.0000, -2.916585590531296E+08, 1.631223719614651E+08, -1.944786243929112E+07,
2461113.500000000, A.D. 2026-Mar-14 00:00:00.0000, -2.979973841149061E+08, 1.524590756657126E+08, -1.962500442932478E+07,
2461120.500000000, A.D. 2026-Mar-21 00:00:00.0000, -3.039525170135677E+08, 1.415995452684724E+08, -1.977687245207468E+07,
2461127.500000000, A.D. 2026-Mar-28 00:00:00.0000, -3.095183540273400E+08, 1.305587201142734E+08, -1.990340551043088E+07,
2461134.500000000, A.D. 2026-Apr-04 00:00:00.0000, -3.146899400281268E+08, 1.193516534123484E+08, -2.000458161291615E+07,
2461141.500000000, A.D. 2026-Apr-11 00:00:00.0000, -3.194629653589447E+08, 1.079934799074804E+08, -2.008041701310420E+07,
2461148.500000000, A.D. 2026-Apr-18 00:00:00.0000, -3.238337609496437E+08, 9.649938427014017E+07, -2.013096536101626E+07,
2461155.500000000, A.D. 2026-Apr-25 00:00:00.0000, -3.277992917276953E+08, 8.488457033114117E+07, -2.015631677680806E+07,
2461162.500000000, A.D. 2026-May-02 00:00:00.0000, -3.313571484031204E+08, 7.316423122912048E+07, -2.015659685961910E+07,
2461169.500000000, A.D. 2026-May-09 00:00:00.0000, -3.345055376182520E+08, 6.135352049023542E+07, -2.013196565629658E+07,
2461176.500000000, A.D. 2026-May-16 00:00:00.0000, -3.372432702035978E+08, 4.946752425189792E+07, -2.008261662136497E+07,
2461183.500000000, A.D. 2026-May-23 00:00:00.0000, -3.395697476095375E+08, 3.752123571435343E+07, -2.000877549750969E+07,
2461190.500000000, A.D. 2026-May-30 00:00:00.0000, -3.414849487162352E+08, 2.552953218918996E+07, -1.991069890815283E+07,
2461197.500000000, A.D. 2026-Jun-06 00:00:00.0000, -3.429894174663117E+08, 1.350715151171148E+07, -1.978867290930674E+07,
2461204.500000000, A.D. 2026-Jun-13 00:00:00.0000, -3.440842477758180E+08, 1.468668051259568E+06, -1.964301182797229E+07,
2461211.500000000, A.D. 2026-Jun-20 00:00:00.0000, -3.447710663304479E+08, -1.057152873178930E+07, -1.947405710625592E+07,
2461218.500000000, A.D. 2026-Jun-27 00:00:00.0000, -3.450520150675321E+08, -2.259925352004000E+07, -1.928217602747072E+07,
2461225.500000000, A.D. 2026-Jul-04 00:00:00.0000, -3.449297334542802E+08, -3.460054295035323E+07, -1.906776039420637E+07,
2461232.500000000, A.D. 2026-Jul-11 00:00:00.0000, -3.444073404228097E+08, -4.656167215062749E+07, -1.883122520040526E+07,
2461239.500000000, A.D. 2026-Jul-18 00:00:00.0000, -3.434884159809073E+08, -5.846916999530879E+07, -1.857300731167342E+07,
2461246.500000000, A.D. 2026-Jul-25 00:00:00.0000, -3.421769825781327E+08, -7.030983309885767E+07, -1.829356416254611E+07,
2461253.500000000, A.D. 2026-Aug-01 00:00:00.0000, -3.404774862732930E+08, -8.207073862217927E+07, -1.799337248422978E+07,
2461260.500000000, A.D. 2026-Aug-08 00:00:00.0000, -3.383947775732471E+08, -9.373925596119887E+07, -1.767292708942419E+07,
2461267.500000000, A.D. 2026-Aug-15 00:00:00.0000, -3.359340916051632E+08, -1.053030569065690E+08, -1.733273971872217E+07,
2461274.500000000, A.D. 2026-Aug-22 00:00:00.0000, -3.331010284534660E+08, -1.167501230976505E+08, -1.697333778180572E+07,
2461281.500000000, A.D. 2026-Aug-29 00:00:00.0000, -3.299015360154989E+08, -1.280687521930968E+08, -1.659526289853299E+07,
2461288.500000000, A.D. 2026-Sep-05 00:00:00.0000, -3.263418933054404E+08, -1.392475656796484E+08, -1.619906967309768E+07,
$$EOE